1998-067UN              
1 54536U 98067UN  23007.66681913  .00052564  00000+0  81397-3 0  9997
2 54536  51.6450  43.1004 0003696 261.2793 189.0837 15.53509539  5659
1998-067UP              
1 54537U 98067UP  23007.66443464  .00058197  00000+0  88810-3 0  9990
2 54537  51.6448  43.0642 0003723 260.2244 200.0723 15.53869885  5690
XW-4 (CAS-10)           
1 54816U 21035C   23007.83158543  .00143613  00000+0  14163-2 0  9998
2 54816  41.4783  52.8124 0005724 340.4739  19.5752 15.64667348  3128
MARIO                   
1 55123U 98067UQ  23007.36970417  .00060250  00000+0  10002-2 0  9992
2 55123  51.6424  45.0589 0002783 292.8759  67.1936 15.51518398  1451
NUTSAT                  
1 55124U 98067UR  23007.49856706  .00088508  00000+0  14515-2 0  9990
2 55124  51.6452  44.4154 0003056 292.4641  67.6061 15.51689452  1469
1998-067US              
1 55125U 98067US  23007.49911221  .00052400  00000+0  87677-3 0  9997
2 55125  51.6425  44.4230 0003550 287.1294  72.9307 15.51355276  1487
1998-067UT              
1 55126U 98067UT  23007.82154350  .00045975  00000+0  77298-3 0  9994
2 55126  51.6425  42.8261 0003624 287.5430  72.5164 15.51276976  1534
LORIS                   
1 55127U 98067UU  23007.80184873  .00526380  00000+0  62879-2 0  9998
2 55127  51.6395  42.6941 0002078  59.3846 300.7352 15.58690743  1491
1998-067UV              
1 55128U 98067UV  23007.82277382  .00051803  00000+0  87464-3 0  9990
2 55128  51.6423  42.8350 0004501 268.7867  91.2607 15.51102936  1526
SPORT                   
1 55129U 98067UW  23007.50173064  .00030812  00000+0  53209-3 0  9995
2 55129  51.6422  44.4408 0002482 253.0493 107.0225 15.50717402  1471
PETITSAT                
1 55130U 98067UX  23007.11520793  .00025907  00000+0  45011-3 0  9990
2 55130  51.6421  46.3591 0002570 250.3345 109.7367 15.50642240  1361
